# From MPC106342
C/1995 O1 (Hale-Bopp),e,89.0343,283.2665,130.5212,178.7963,0.0004123,0.99494975,0.0000,03/29.7432/1997,2000,g -2.0,4.0
# From NK 1615
P/1996 R2 (Lagerkvist),e,2.6004,40.0265,333.3155,3.775012,0.1343775,0.31412467,102.0299,03/12.0/2021,2000,g 11.5,4.0
# From MPC 30063
P/1997 B1 (Kobayashi),e,12.3395,328.8824,183.3484,8.571210,0.0392772,0.76016115,345.0047,03/12.0/2021,2000,g 15.0,2.0
# From MPC 75703
P/1998 VS24 (LINEAR),e,5.0257,159.0330,244.6469,4.528914,0.1022617,0.24212449,117.4948,03/12.0/2021,2000,g 13.0,2.0
# From NK 731
P/1999 RO28 (LONEOS),e,7.5671,137.8848,231.2653,3.426730,0.1553761,0.67214333,97.0836,03/12.0/2021,2000,g 20.0,2.0
# From MPC 75704
P/1999 XN120 (Catalina),e,5.0296,285.2963,161.8666,4.179030,0.1153695,0.21026656,158.1487,03/12.0/2021,2000,g 13.5,2.0
# From NK 744
P/2000 R2 (LINEAR),e,11.6853,160.2905,176.5277,3.466376,0.1527181,0.53159555,96.7524,03/12.0/2021,2000,g 18.0,4.0
# From MPC 43019
P/2001 H5 (NEAT),e,8.3669,328.6835,224.8610,6.098014,0.0654518,0.59853628,129.0167,03/12.0/2021,2000,g 12.0,4.0
# From MPC 75704
P/2001 Q6 (NEAT),e,56.9058,22.1437,42.9366,7.952194,0.0439515,0.82288690,312.3592,03/12.0/2021,2000,g 13.5,4.0
# From MPC 47727
P/2002 EJ57 (LINEAR),e,4.9762,330.3268,167.3661,6.471983,0.0598616,0.59258051,59.7273,03/12.0/2021,2000,g 12.5,4.0
# From MPC109588
P/2002 T6 (NEAT-LINEAR),e,10.8346,206.3588,219.6377,7.676762,0.0463380,0.56035826,303.0528,03/12.0/2021,2000,g 10.5,4.0
# From MPC 75007
C/2002 VQ94 (LINEAR),e,70.5876,35.0331,100.1473,185.4793,0.0003902,0.96316285,2.1548,03/12.0/2021,2000,g  9.5,2.0
# From MPC 50354
P/2003 F2 (NEAT),e,11.6048,359.0545,192.0025,6.494822,0.0595461,0.54232253,28.9095,03/12.0/2021,2000,g 16.5,2.0
# From MPC 50139
P/2003 QX29 (NEAT),e,11.3899,264.5793,37.4479,8.030076,0.0433136,0.47300249,290.3902,03/12.0/2021,2000,g  8.5,4.0
# From MPC105235
P/2003 T12 (SOHO),e,11.0181,174.5743,219.7629,2.586069,0.2369976,0.76969095,73.2622,03/12.0/2021,2000,g 17.0,4.0
# From MPC 82312
P/2004 A1 (LONEOS),e,10.5516,124.8467,21.3608,7.958347,0.0439005,0.30931950,265.9563,03/12.0/2021,2000,g  6.5,4.0
# From MPC 54558
P/2004 DO29 (Spacewatch-LINEAR),e,14.5320,147.3753,40.6997,7.284036,0.0501356,0.44122413,300.8069,03/12.0/2021,2000,g 13.5,2.0
# From MPC 54823
P/2004 FY140 (LINEAR),e,2.1348,326.7605,242.4348,4.902500,0.0907983,0.16842554,186.8526,03/12.0/2021,2000,g 12.5,2.0
# From MPC 53304
P/2004 R3 (LINEAR-NEAT),e,12.8194,305.4803,38.2714,4.797814,0.0937862,0.26102313,341.5178,03/12.0/2021,2000,g 14.5,4.0
# From MPC 55521
P/2004 V3 (Siding Spring),e,50.4372,356.1200,322.3260,7.142430,0.0516339,0.44634547,309.1381,03/12.0/2021,2000,g 11.5,4.0
# From MPC 75705
P/2004 V5 (LINEAR-Hill),e,19.3434,47.7776,87.7425,7.977830,0.0437398,0.44354459,257.1643,03/12.0/2021,2000,g  8.0,4.0
# From MPC 54164
P/2005 E1 (Tubbiolo),e,4.2637,335.5688,194.0917,7.038933,0.0527769,0.37514317,310.8227,03/12.0/2021,2000,g 10.0,4.0
# From MPC 54823
P/2005 GF8 (LONEOS),e,1.1924,314.8194,284.9100,5.847887,0.0696956,0.51778026,36.9479,03/12.0/2021,2000,g 11.5,4.0
# From MPC 79019
P/2005 J1 (McNaught),e,31.7642,268.8074,338.9615,3.570139,0.1461088,0.56974850,128.7779,03/12.0/2021,2000,g 16.5,4.0
# From MPC 74246
P/2005 L1 (McNaught),e,7.7385,138.2481,149.7150,3.975323,0.1243499,0.20943314,330.6917,03/12.0/2021,2000,g  9.5,4.0
# From MPC 75706
P/2005 S2 (Skiff),e,3.1357,161.2033,229.1521,8.016142,0.0434266,0.19716455,235.4547,03/12.0/2021,2000,g  7.5,4.0
# From MPC 75706
P/2005 SB216 (LONEOS),e,24.0791,1.2131,83.3764,7.129469,0.0517748,0.46351478,268.1424,03/12.0/2021,2000,g 12.0,2.0
# From MPC 55717
P/2005 T2 (Christensen),e,8.2925,260.1584,58.8220,3.846207,0.1306637,0.41639234,44.1134,03/12.0/2021,2000,g 14.5,4.0
# From MPC 73461
P/2005 T3 (Read),e,6.2241,27.7275,6.9046,7.580303,0.0472252,0.17419216,266.1249,03/12.0/2021,2000,g  9.0,4.0
# From MPC 73461
P/2005 T4 (SWAN),e,160.1978,25.7153,41.6195,9.361187,0.0344118,0.92982899,194.1772,03/12.0/2021,2000,g 15.0,4.0
# From MPC 75706
P/2005 T5 (Broughton),e,21.3568,57.0043,304.5452,7.290560,0.0500683,0.55217303,282.1217,03/12.0/2021,2000,g 11.0,4.0
# From MPC 56954
P/2005 W3 (Kowalski),e,16.4196,210.0861,200.7115,6.329767,0.0618903,0.54340216,348.0656,03/12.0/2021,2000,g 12.0,4.0
# From MPC 75706
P/2005 Y2 (McNaught),e,19.0758,94.4758,193.9673,6.387725,0.0610499,0.47082253,8.7143,03/12.0/2021,2000,g  9.0,4.0
# From MPC 56954
P/2006 F4 (Spacewatch),e,12.4131,183.8469,31.0673,3.524459,0.1489586,0.33970637,87.5105,03/12.0/2021,2000,g 15.0,4.0
# From MPC 75707
P/2006 HR30 (Siding Spring),e,31.8294,309.9036,117.2881,7.811276,0.0451462,0.84216207,234.8895,03/12.0/2021,2000,g 11.0,4.0
# From MPC 75707
P/2006 S4 (Christensen),e,39.5329,36.0880,305.1456,6.313917,0.0621235,0.50819664,340.8267,03/12.0/2021,2000,g 11.0,4.0
# From MPC 75707
P/2007 A2 (Christensen),e,26.4877,300.9067,186.7440,6.326508,0.0619381,0.55765966,321.1455,03/12.0/2021,2000,g 13.5,4.0
# From MPC 75707
P/2007 C2 (Catalina),e,8.6465,275.5694,179.9739,6.992750,0.0533006,0.47049405,261.8727,03/12.0/2021,2000,g 10.0,4.0
# From MPC 84315
C/2007 D1 (LINEAR),e,41.5017,171.1952,340.0589,1472,0.0000174,0.99400466,0.0000,06/09.0062/2007,2000,g  3.5,4.0
# From MPC 82314
P/2007 K2 (Gibbs),e,7.6341,188.6446,347.4538,7.264194,0.0503411,0.68320052,253.2515,03/12.0/2021,2000,g 14.0,4.0
# From MPC 60925
P/2007 Q2 (Gilmore),e,10.2027,172.1601,162.7748,5.653001,0.0733306,0.67014658,7.7020,03/12.0/2021,2000,g 16.0,4.0
# From MPC 75708
P/2007 R4 (Garradd),e,20.2194,87.2201,282.6172,5.931974,0.0682190,0.67013519,341.4592,03/12.0/2021,2000,g 14.5,4.0
# From MPC 73462
P/2007 S1 (Zhao),e,5.9636,141.3745,245.6755,3.814465,0.1322981,0.33958359,283.8769,03/12.0/2021,2000,g 13.0,4.0
# From MPC 61994
P/2007 T2 (Kowalski),e,9.7471,3.3746,359.6370,3.047037,0.1853051,0.78532675,178.2942,03/12.0/2021,2000,g 18.5,4.0
# From MPC 75708
P/2008 CL94 (Lemmon),e,8.3468,33.3257,80.4680,6.161814,0.0644379,0.12036647,347.5567,03/12.0/2021,2000,g  8.0,4.0
# From MPC 75709
P/2008 L2 (Hill),e,25.8597,218.0069,141.2176,6.028593,0.0665856,0.61312631,307.3865,03/12.0/2021,2000,g 12.5,4.0
# From MPC 64114
P/2008 O3 (Boattini),e,32.2615,47.5919,341.0933,8.222139,0.0418049,0.69528726,195.4583,03/12.0/2021,2000,g 13.0,4.0
# From MPC 75709
P/2008 QP20 (LINEAR-Hill),e,7.5226,322.0728,75.5646,3.553806,0.1471172,0.49201751,316.4344,03/12.0/2021,2000,g 15.5,4.0
# From MPC 66204
P/2008 WZ96 (LINEAR),e,7.1113,56.4562,341.9052,3.488738,0.1512522,0.47007013,334.6291,03/12.0/2021,2000,g 13.5,4.0
# From MPC 75710
P/2008 Y3 (McNaught),e,38.7648,262.7964,238.2359,8.046494,0.0431811,0.44547294,192.6312,03/12.0/2021,2000,g  8.5,4.0
# From MPC 75710
P/2009 B1 (Boattini),e,22.2195,297.0910,128.8842,6.736527,0.0563703,0.63474910,250.7056,03/12.0/2021,2000,g 13.0,4.0
# From MPC 66466
C/2009 G1 (STEREO),e,108.7429,120.4353,175.4072,432.5001,0.0001096,0.99737361,0.0000,04/15.5584/2009,2000,g  9.0,4.0
# From MPC 75710
P/2009 O3 (Hill),e,16.2697,183.7082,154.4053,7.769826,0.0455079,0.68767433,196.2517,03/12.0/2021,2000,g 12.5,4.0
# From MPC 98557
P/2009 Q1 (Hill),e,14.5056,173.9599,157.1271,5.520657,0.0759833,0.49486733,326.7093,03/12.0/2021,2000,g 11.5,4.0
# From MPC 68902
P/2009 Q5 (McNaught),e,40.9800,160.2697,209.0228,7.436947,0.0485973,0.60888864,204.4570,03/12.0/2021,2000,g 10.0,4.0
# From MPC112389
P/2009 T2 (La Sagra),e,27.5557,215.8069,216.4008,7.723776,0.0459155,0.76522818,187.9240,03/12.0/2021,2000,g 14.0,4.0
# From MPC 75711
P/2009 U4 (McNaught),e,10.0805,55.3514,259.8374,5.083380,0.0859954,0.67608999,3.3458,03/12.0/2021,2000,g 14.0,4.0
# From MPC105235
P/2009 WX51 (Catalina),e,9.5953,31.6823,118.0763,3.080564,0.1822883,0.74029235,21.0793,03/12.0/2021,2000,g 19.0,2.0
# From MPC 74247
P/2009 Y2 (Kowalski),e,29.9312,262.0246,172.1566,6.549591,0.0588007,0.63594662,236.8871,03/12.0/2021,2000,g 13.0,4.0
# From MPC 75711
P/2010 A3 (Hill),e,14.8500,63.9763,42.0340,6.076818,0.0657945,0.73338984,263.7928,03/12.0/2021,2000,g 14.0,4.0
# From MPC 75008
P/2010 C1 (Scotti),e,9.1281,141.8859,3.7233,7.103295,0.0520612,0.25868695,215.3154,03/12.0/2021,2000,g  9.5,4.0
# From MPC 75008
P/2010 D2 (WISE),e,57.0847,319.8918,120.0650,6.716359,0.0566244,0.45092496,228.9552,03/12.0/2021,2000,g 16.0,4.0
# From MPC 75009
P/2010 E2 (Jarnac),e,15.4002,177.8242,8.3665,8.638627,0.0388183,0.72004128,155.1463,03/12.0/2021,2000,g 14.0,4.0
# From MPC 72851
P/2010 H2 (Vales),e,14.2735,64.2015,128.1535,3.833963,0.1312902,0.19576021,168.0702,03/12.0/2021,2000,g  6.0,4.0
# From MPC 70361
P/2010 H3 (SOHO),e,23.0873,77.1009,26.1384,3.037957,0.1861366,0.98538507,0.0000,02/07.9650/2021,2000,g 20.0,2.0
# From MPC 73463
P/2010 H4 (Scotti),e,2.3187,44.7433,179.5490,6.590842,0.0582496,0.26732314,228.2693,03/12.0/2021,2000,g 10.5,4.0
# From MPC 74637
P/2010 H5 (Scotti),e,14.0649,24.8070,175.2344,7.160556,0.0514380,0.15340215,205.3287,03/12.0/2021,2000,g 13.0,2.0
# From MPC 98558
P/2010 J3 (McMillan),e,13.2877,106.4135,157.5933,8.971700,0.0366768,0.72706639,141.0992,03/12.0/2021,2000,g 11.0,4.0
# From MPC 84315
P/2010 JC81 (WISE),e,38.7369,30.8458,12.4352,8.110263,0.0426729,0.77687258,154.2393,03/12.0/2021,2000,g  9.0,4.0
# From MPC 74248
P/2010 T2 (PANSTARRS),e,7.9044,58.9543,353.5152,5.522462,0.0759460,0.32148657,275.8403,03/12.0/2021,2000,g 11.5,4.0
# From MPC 98558
P/2010 TO20 (LINEAR-Grauer),e,2.4790,43.2955,266.7742,5.830031,0.0700161,0.05481955,316.7620,03/12.0/2021,2000,g  9.0,4.0
# From MPC 82316
P/2010 U1 (Boattini),e,8.2146,280.7125,85.9307,6.510726,0.0593280,0.24824239,241.1659,03/12.0/2021,2000,g  9.5,4.0
# From MPC119994
C/2010 U3 (Boattini),e,55.5249,43.0266,88.0663,2319,0.0000088,0.99635843,0.0000,02/25.7325/2019,2000,g  1.0,4.0
# From MPC 79021
P/2010 UH55 (Spacewatch),e,8.0433,232.9654,225.1805,6.651967,0.0574485,0.56340797,208.0688,03/12.0/2021,2000,g 11.0,4.0
# From MPC 75009
P/2010 WK (LINEAR),e,11.4008,11.3197,40.9782,5.760904,0.0712801,0.68987093,272.4507,03/12.0/2021,2000,g 14.5,2.0
# From MPC 82317
